[{"OBJECT_NAME":"KL-BETA A","OBJECT_ID":"2021-070A","EPOCH":"2026-03-09T23:16:25.352832","MEAN_MOTION":13.94374423,"ECCENTRICITY":0.00022434,"INCLINATION":88.9968,"RA_OF_ASC_NODE":229.3018,"ARG_OF_PERICENTER":49.4969,"MEAN_ANOMALY":310.6402,"EPHEMERIS_TYPE":0,"CLASSIFICATION_TYPE":"U","NORAD_CAT_ID":49059,"ELEMENT_SET_NO":999,"REV_AT_EPOCH":23410,"BSTAR":-1.8977282e-5,"MEAN_MOTION_DOT":-1.2e-7,"MEAN_MOTION_DDOT":0},{"OBJECT_NAME":"THORAD AGENA D DEB","OBJECT_ID":"1970-025AS","EPOCH":"2026-03-09T19:36:43.776576","MEAN_MOTION":13.98987997,"ECCENTRICITY":0.00264271,"INCLINATION":99.935,"RA_OF_ASC_NODE":31.1457,"ARG_OF_PERICENTER":95.7609,"MEAN_ANOMALY":264.6566,"EPHEMERIS_TYPE":0,"CLASSIFICATION_TYPE":"U","NORAD_CAT_ID":4658,"ELEMENT_SET_NO":999,"REV_AT_EPOCH":80450,"BSTAR":0.0018272514,"MEAN_MOTION_DOT":2.597e-5,"MEAN_MOTION_DDOT":0}]
